NORAD_CAT_ID,OBJECT_NAME,OBJECT_TYPE,EPOCH,MEAN_MOTION,ECCENTRICITY,INCLINATION,RA_OF_ASC_NODE,ARG_OF_PERICENTER,MEAN_ANOMALY,BSTAR,MEAN_MOTION_DOT,MEAN_MOTION_DDOT,TLE_LINE0,TLE_LINE1,TLE_LINE2,SEMIMAJOR_AXIS,PERIOD,APOGEE,PERIGEE,DECAYED
56788.0,STARLINK-6336,PAYLOAD,2024-08-13 16:40:23,14.98317767,0.0002843,70.0001,329.2105,265.1744,94.9091,-0.00017103,-2.132e-05,0.0,0 STARLINK-6336,1 56788U 23078X   24226.69471809 -.00002132  00000-0 -17103-3 0  9999,2 56788  70.0001 329.2105 0002843 265.1744  94.9091 14.98317767 67347,6950.231,96.108,574.072,570.12,0.0
56788.0,STARLINK-6336,PAYLOAD,2024-08-14 13:30:07,14.98330297,0.0003102,70.001,327.0239,269.0489,91.0315,-9.0827e-05,-1.177e-05,0.0,0 STARLINK-6336,1 56788U 23078X   24227.56259186 -.00001177  00000-0 -90827-4 0  9991,2 56788  70.0010 327.0239 0003102 269.0489  91.0315 14.98330297 67732,6950.192,96.107,574.213,569.901,0.0
56788.0,STARLINK-6336,PAYLOAD,2024-08-14 16:42:23,14.98332132,0.0003115,70.0012,326.6875,268.7149,91.3653,-5.4154e-05,-7.39e-06,0.0,0 STARLINK-6336,1 56788U 23078X   24227.69611021 -.00000739  00000-0 -54154-4 0  9991,2 56788  70.0012 326.6875 0003115 268.7149  91.3653 14.98332132 67499,6950.186,96.107,574.216,569.886,0.0
56788.0,STARLINK-6336,PAYLOAD,2024-08-15 13:32:08,14.98322846,0.0002797,70.0013,324.4995,268.4184,91.6655,0.00038773,4.535e-05,0.0,0 STARLINK-6336,1 56788U 23078X   24228.56399128  .00004535  00000-0  38773-3 0  9993,2 56788  70.0013 324.4995 0002797 268.4184  91.6655 14.98322846 67621,6950.215,96.107,574.024,570.136,0.0
56788.0,STARLINK-6336,PAYLOAD,2024-08-16 10:21:53,14.98330995,0.0002762,70.0013,322.3118,267.5918,92.4925,0.00022893,2.64e-05,0.0,0 STARLINK-6336,1 56788U 23078X   24229.43187412  .00002640  00000-0  22893-3 0  9992,2 56788  70.0013 322.3118 0002762 267.5918  92.4925 14.98330995 67759,6950.19,96.107,573.974,570.135,0.0
56788.0,STARLINK-6336,PAYLOAD,2024-08-17 07:11:37,14.98321522,0.0003471,70.003,320.1249,277.9888,82.0877,-0.0003831,-4.66e-05,0.0,0 STARLINK-6336,1 56788U 23078X   24230.29974447 -.00004660  00000-0 -38310-3 0  9997,2 56788  70.0030 320.1249 0003471 277.9888  82.0877 14.98321522 68149,6950.219,96.108,574.497,569.672,0.0
56788.0,STARLINK-6336,PAYLOAD,2024-08-18 12:02:02,14.98332042,0.0002784,70.0032,317.0957,246.3792,113.7075,-5.0674e-05,-6.98e-06,0.0,0 STARLINK-6336,1 56788U 23078X   24231.50142264 -.00000698  00000-0 -50674-4 0  9991,2 56788  70.0032 317.0957 0002784 246.3792 113.7075 14.98332042 68323,6950.187,96.107,573.987,570.117,0.0
56788.0,STARLINK-6336,PAYLOAD,2024-08-18 15:14:18,14.98336827,0.0002804,70.003,316.7569,256.2758,103.8089,0.00019919,2.285e-05,0.0,0 STARLINK-6336,1 56788U 23078X   24231.63493604  .00002285  00000-0  19919-3 0  9990,2 56788  70.0030 316.7569 0002804 256.2758 103.8089 14.98336827 68343,6950.172,96.107,573.986,570.088,0.0
56788.0,STARLINK-6336,PAYLOAD,2024-08-19 10:27:56,14.9831716,0.0003258,70.0025,314.7395,271.7698,88.3088,0.00017952,2.049e-05,0.0,0 STARLINK-6336,1 56788U 23078X   24232.43607296  .00002049  00000-0  17952-3 0  9996,2 56788  70.0025 314.7395 0003258 271.7698  88.3088 14.98317160 68469,6950.233,96.108,574.362,569.833,0.0
56788.0,STARLINK-6336,PAYLOAD,2024-08-20 12:06:05,14.98339777,0.0002945,70.0024,312.0431,269.2009,90.8812,0.000612,7.219e-05,0.0,0 STARLINK-6336,1 56788U 23078X   24233.50422868  .00007219  00000-0  61200-3 0  9994,2 56788  70.0024 312.0431 0002945 269.2009  90.8812 14.98339777 68629,6950.163,96.106,574.074,569.981,0.0
56788.0,STARLINK-6336,PAYLOAD,2024-08-20 13:42:13,14.98345928,0.0003115,70.002,311.8769,268.9319,91.1483,0.00078057,9.237e-05,0.0,0 STARLINK-6336,1 56788U 23078X   24233.57098672  .00009237  00000-0  78057-3 0  9993,2 56788  70.0020 311.8769 0003115 268.9319  91.1483 14.98345928 68371,6950.144,96.106,574.174,569.844,0.0
56788.0,STARLINK-6336,PAYLOAD,2024-08-21 12:08:06,14.98330443,0.0002422,70.0031,309.5202,256.7217,103.3672,0.00013845,1.559e-05,0.0,0 STARLINK-6336,1 56788U 23078X   24234.50563096  .00001559  00000-0  13845-3 0  9997,2 56788  70.0031 309.5202 0002422 256.7217 103.3672 14.98330443 68777,6950.192,96.107,573.74,570.373,0.0
56788.0,STARLINK-6336,PAYLOAD,2024-08-21 13:44:14,14.98330793,0.0002481,70.0031,309.3519,260.6078,99.4801,3.676e-05,3.46e-06,0.0,0 STARLINK-6336,1 56788U 23078X   24234.57239044  .00000346  00000-0  36760-4 0  9992,2 56788  70.0031 309.3519 0002481 260.6078  99.4801 14.98330793 68520,6950.19,96.107,573.78,570.331,0.0
56788.0,STARLINK-6336,PAYLOAD,2024-08-21 15:20:22,14.98329927,0.0002445,70.003,309.1838,261.1322,98.956,9.6962e-05,1.064e-05,0.0,0 STARLINK-6336,1 56788U 23078X   24234.63915126  .00001064  00000-0  96962-4 0  9999,2 56788  70.0030 309.1838 0002445 261.1322  98.9560 14.98329927 68533,6950.193,96.107,573.757,570.359,0.0
56788.0,STARLINK-6336,PAYLOAD,2024-08-22 04:09:26,14.98342201,0.0002618,70.0019,307.8366,261.9391,98.1471,0.00016686,1.899e-05,0.0,0 STARLINK-6336,1 56788U 23078X   24235.17322427  .00001899  00000-0  16686-3 0  9995,2 56788  70.0019 307.8366 0002618 261.9391  98.1471 14.98342201 68877,6950.155,96.106,573.84,570.201,0.0
